[
  {
    "name": "ONEWEB-0473",
    "noradId": "51653",
    "line1": "1 51653U 22012AH  26164.89395125 -.00000541  00000+0 -15854-2 0  9994",
    "line2": "2 51653  87.8828  36.9323 0001803  78.4845 281.6485 13.10370623208872"
  },
  {
    "name": "ONEWEB-0474",
    "noradId": "51654",
    "line1": "1 51654U 22012AJ  26164.88565527 -.00000089  00000+0 -29148-3 0  9998",
    "line2": "2 51654  87.8841  36.9180 0001637  73.3149 286.8158 13.10369562208868"
  },
  {
    "name": "ONEWEB-0475",
    "noradId": "51655",
    "line1": "1 51655U 22012AK  26164.80521797  .00000080  00000+0  17414-3 0  9994",
    "line2": "2 51655  87.9135   6.5454 0001620  67.4797 292.6506 13.17649641213244"
  },
  {
    "name": "ONEWEB-0490",
    "noradId": "54113",
    "line1": "1 54113U 22138A   26164.87446192  .00000037  00000+0  60118-4 0  9999",
    "line2": "2 54113  87.9172 305.6267 0001676 100.1785 259.9537 13.19724657176392"
  },
  {
    "name": "ONEWEB-0492",
    "noradId": "54114",
    "line1": "1 54114U 22138B   26164.89974105  .00000099  00000+0  21600-3 0  9992",
    "line2": "2 54114  87.9165 305.6234 0001766 106.3212 253.8115 13.19725310176406"
  },
  {
    "name": "ONEWEB-0495",
    "noradId": "54115",
    "line1": "1 54115U 22138C   26164.87762053 -.00000002  00000+0 -36334-4 0  9995",
    "line2": "2 54115  87.9167 305.6303 0001210 104.8080 255.3187 13.19725021176388"
  },
  {
    "name": "ONEWEB-0497",
    "noradId": "54116",
    "line1": "1 54116U 22138D   26164.89025720  .00000020  00000+0  16896-4 0  9990",
    "line2": "2 54116  87.9172 305.6196 0001775  99.7047 260.4287 13.19724221176374"
  },
  {
    "name": "ONEWEB-0499",
    "noradId": "54117",
    "line1": "1 54117U 22138E   26164.87367558  .00000046  00000+0  82656-4 0  9992",
    "line2": "2 54117  87.9165 305.6320 0001607  95.4359 264.6957 13.19726398176387"
  },
  {
    "name": "ONEWEB-0500",
    "noradId": "54118",
    "line1": "1 54118U 22138F   26164.87603750  .00000028  00000+0  36816-4 0  9997",
    "line2": "2 54118  87.9175 305.6257 0001907 100.2057 259.9291 13.19724442176398"
  },
  {
    "name": "ONEWEB-0501",
    "noradId": "54119",
    "line1": "1 54119U 22138G   26164.90604493 -.00000062  00000+0 -18714-3 0  9993",
    "line2": "2 54119  87.9174 305.6194 0001399 100.0694 260.0597 13.19723226176377"
  },
  {
    "name": "ONEWEB-0502",
    "noradId": "54120",
    "line1": "1 54120U 22138H   26164.89182729  .00000011  00000+0 -56142-5 0  9998",
    "line2": "2 54120  87.9174 305.6111 0001630  94.4133 265.7186 13.19723805176391"
  },
  {
    "name": "ONEWEB-0503",
    "noradId": "54121",
    "line1": "1 54121U 22138J   26164.88077948  .00000042  00000+0  73172-4 0  9998",
    "line2": "2 54121  87.9176 305.6192 0001927  90.4472 269.6882 13.19724506176388"
  },
  {
    "name": "ONEWEB-0504",
    "noradId": "54122",
    "line1": "1 54122U 22138K   26164.94396460 -.00000059  00000+0 -18008-3 0  9995",
    "line2": "2 54122  87.9175 305.6113 0001651  93.6351 266.4971 13.19724871176408"
  },
  {
    "name": "ONEWEB-0505",
    "noradId": "54123",
    "line1": "1 54123U 22138L   26164.94080853  .00000048  00000+0  88596-4 0  9998",
    "line2": "2 54123  87.9173 305.6130 0001386  95.7024 264.4267 13.19725893176389"
  },
  {
    "name": "ONEWEB-0506",
    "noradId": "54124",
    "line1": "1 54124U 22138M   26164.91551828 -.00000042  00000+0 -13732-3 0  9996",
    "line2": "2 54124  87.9176 305.6150 0001528  98.8131 261.3175 13.19723496176376"
  },
  {
    "name": "ONEWEB-0507",
    "noradId": "54125",
    "line1": "1 54125U 22138N   26164.93606617  .00000016  00000+0  87251-5 0  9994",
    "line2": "2 54125  87.9165 305.6234 0001640 100.1211 260.0106 13.19725356176422"
  },
  {
    "name": "ONEWEB-0508",
    "noradId": "54126",
    "line1": "1 54126U 22138P   26164.93289699 -.00000015  00000+0 -69229-4 0  9997",
    "line2": "2 54126  87.9167 305.6236 0001460 106.1717 253.9576 13.19724175176402"
  },
  {
    "name": "ONEWEB-0509",
    "noradId": "54127",
    "line1": "1 54127U 22138Q   26164.90761923 -.00000087  00000+0 -24967-3 0  9998",
    "line2": "2 54127  87.9176 305.6179 0001680  98.9588 261.1735 13.19719148176375"
  },
  {
    "name": "ONEWEB-0510",
    "noradId": "54128",
    "line1": "1 54128U 22138R   26164.79872420  .00000034  00000+0  52413-4 0  9999",
    "line2": "2 54128  87.9193 275.1111 0002419  96.7916 263.3493 13.20772076178833"
  },
  {
    "name": "ONEWEB-0511",
    "noradId": "54129",
    "line1": "1 54129U 22138S   26164.90447698 -.00000033  00000+0 -11364-3 0  9998",
    "line2": "2 54129  87.9173 305.6214 0001768  88.8983 271.2353 13.19725658176403"
  },
  {
    "name": "ONEWEB-0512",
    "noradId": "54130",
    "line1": "1 54130U 22138T   26164.89657071  .00000008  00000+0 -11761-4 0  9999",
    "line2": "2 54130  87.9166 305.6282 0001521  92.8509 267.2797 13.19724551176372"
  },
  {
    "name": "ONEWEB-0513",
    "noradId": "54131",
    "line1": "1 54131U 22138U   26164.90354084  .00000021  00000+0  19998-4 0  9994",
    "line2": "2 54131  87.9173 305.5713 0001234  70.1296 289.9970 13.20268363176282"
  },
  {
    "name": "ONEWEB-0514",
    "noradId": "54132",
    "line1": "1 54132U 22138V   26164.91236628 -.00000040  00000+0 -13316-3 0  9999",
    "line2": "2 54132  87.9176 305.6184 0001977  96.8405 263.2953 13.19724609176396"
  },
  {
    "name": "ONEWEB-0515",
    "noradId": "54133",
    "line1": "1 54133U 22138W   26164.86100335  .00000000  00000+0 -32104-4 0  9991",
    "line2": "2 54133  87.9198 275.0929 0002674 113.1340 247.0076 13.20770160178869"
  },
  {
    "name": "ONEWEB-0516",
    "noradId": "54134",
    "line1": "1 54134U 22138X   26164.88708980  .00000051  00000+0  95031-4 0  9997",
    "line2": "2 54134  87.9164 305.6302 0001784 102.3833 257.7500 13.19724922176395"
  },
  {
    "name": "ONEWEB-0517",
    "noradId": "54135",
    "line1": "1 54135U 22138Y   26164.94237675 -.00000024  00000+0 -93537-4 0  9994",
    "line2": "2 54135  87.9174 305.6111 0001964  89.2598 270.8760 13.19724200176401"
  },
  {
    "name": "ONEWEB-0518",
    "noradId": "54136",
    "line1": "1 54136U 22138Z   26164.88553510  .00000063  00000+0  12476-3 0  9990",
    "line2": "2 54136  87.9163 305.6326 0001798 104.6876 255.4456 13.19727251176392"
  },
  {
    "name": "ONEWEB-0519",
    "noradId": "54137",
    "line1": "1 54137U 22138AA  26164.91079750 -.00000011  00000+0 -61037-4 0  9997",
    "line2": "2 54137  87.9177 305.6183 0001920  91.9240 268.2112 13.19726345176405"
  },
  {
    "name": "ONEWEB-0520",
    "noradId": "54138",
    "line1": "1 54138U 22138AB  26164.94554294 -.00000014  00000+0 -67373-4 0  9994",
    "line2": "2 54138  87.9174 305.6115 0001575  99.9610 260.1701 13.19724633176394"
  },
  {
    "name": "ONEWEB-0521",
    "noradId": "54139",
    "line1": "1 54139U 22138AC  26164.90289049 -.00000067  00000+0 -19940-3 0  9998",
    "line2": "2 54139  87.9176 305.6087 0001979  92.2005 267.9355 13.19724626176333"
  }
]