OBJECT_NAME,OBJECT_ID,EPOCH,MEAN_MOTION,ECCENTRICITY,INCLINATION,RA_OF_ASC_NODE,ARG_OF_PERICENTER,MEAN_ANOMALY,EPHEMERIS_TYPE,CLASSIFICATION_TYPE,NORAD_CAT_ID,ELEMENT_SET_NO,REV_AT_EPOCH,BSTAR,MEAN_MOTION_DOT,MEAN_MOTION_DDOT
ONEWEB-0473,2022-012AH,2026-06-13T21:27:17.388000,13.10370623,.00018036,87.8828,36.9323,78.4845,281.6485,0,U,51653,999,20887,-.15854246E-2,-.541E-5,0
ONEWEB-0474,2022-012AJ,2026-06-13T21:15:20.615328,13.10369562,.00016375,87.8841,36.9180,73.3149,286.8158,0,U,51654,999,20886,-.29148126E-3,-.89E-6,0
ONEWEB-0475,2022-012AK,2026-06-13T19:19:30.832608,13.17649641,.00016208,87.9135,6.5454,67.4797,292.6506,0,U,51655,999,21324,.1741391E-3,.8E-6,0
ONEWEB-0490,2022-138A,2026-06-13T20:59:13.509888,13.19724657,.0001676,87.9172,305.6267,100.1785,259.9537,0,U,54113,999,17639,.60118347E-4,.37E-6,0
ONEWEB-0492,2022-138B,2026-06-13T21:35:37.626720,13.19725310,.00017663,87.9165,305.6234,106.3212,253.8115,0,U,54114,999,17640,.21600218E-3,.99E-6,0
ONEWEB-0495,2022-138C,2026-06-13T21:03:46.413792,13.19725021,.000121,87.9167,305.6303,104.8080,255.3187,0,U,54115,999,17638,-.36334047E-4,-.2E-7,0
ONEWEB-0497,2022-138D,2026-06-13T21:21:58.222080,13.19724221,.00017752,87.9172,305.6196,99.7047,260.4287,0,U,54116,999,17637,.16895804E-4,.2E-6,0
ONEWEB-0499,2022-138E,2026-06-13T20:58:05.570112,13.19726398,.00016078,87.9165,305.6320,95.4359,264.6957,0,U,54117,999,17638,.8265649E-4,.46E-6,0
ONEWEB-0500,2022-138F,2026-06-13T21:01:29.640000,13.19724442,.0001907,87.9175,305.6257,100.2057,259.9291,0,U,54118,999,17639,.3681582E-4,.28E-6,0
ONEWEB-0501,2022-138G,2026-06-13T21:44:42.281952,13.19723226,.00013997,87.9174,305.6194,100.0694,260.0597,0,U,54119,999,17637,-.18714336E-3,-.62E-6,0
ONEWEB-0502,2022-138H,2026-06-13T21:24:13.877856,13.19723805,.00016301,87.9174,305.6111,94.4133,265.7186,0,U,54120,999,17639,-.5614179E-5,.11E-6,0
ONEWEB-0503,2022-138J,2026-06-13T21:08:19.347072,13.19724506,.00019277,87.9176,305.6192,90.4472,269.6882,0,U,54121,999,17638,.73171833E-4,.42E-6,0
ONEWEB-0504,2022-138K,2026-06-13T22:39:18.541440,13.19724871,.00016514,87.9175,305.6113,93.6351,266.4971,0,U,54122,999,17640,-.18007962E-3,-.59E-6,0
ONEWEB-0505,2022-138L,2026-06-13T22:34:45.856992,13.19725893,.00013865,87.9173,305.6130,95.7024,264.4267,0,U,54123,999,17638,.88596088E-4,.48E-6,0
ONEWEB-0506,2022-138M,2026-06-13T21:58:20.779392,13.19723496,.00015288,87.9176,305.6150,98.8131,261.3175,0,U,54124,999,17637,-.13731579E-3,-.42E-6,0
ONEWEB-0507,2022-138N,2026-06-13T22:27:56.117088,13.19725356,.000164,87.9165,305.6234,100.1211,260.0106,0,U,54125,999,17642,.8725091E-5,.16E-6,0
ONEWEB-0508,2022-138P,2026-06-13T22:23:22.299936,13.19724175,.00014601,87.9167,305.6236,106.1717,253.9576,0,U,54126,999,17640,-.69229366E-4,-.15E-6,0
ONEWEB-0509,2022-138Q,2026-06-13T21:46:58.301472,13.19719148,.00016805,87.9176,305.6179,98.9588,261.1735,0,U,54127,999,17637,-.24967137E-3,-.87E-6,0
ONEWEB-0510,2022-138R,2026-06-13T19:10:09.770880,13.20772076,.00024192,87.9193,275.1111,96.7916,263.3493,0,U,54128,999,17883,.52412934E-4,.34E-6,0
ONEWEB-0511,2022-138S,2026-06-13T21:42:26.811072,13.19725658,.00017682,87.9173,305.6214,88.8983,271.2353,0,U,54129,999,17640,-.11364425E-3,-.33E-6,0
ONEWEB-0512,2022-138T,2026-06-13T21:31:03.709344,13.19724551,.00015213,87.9166,305.6282,92.8509,267.2797,0,U,54130,999,17637,-.1176061E-4,.8E-7,0
ONEWEB-0513,2022-138U,2026-06-13T21:41:05.928576,13.20268363,.00012348,87.9173,305.5713,70.1296,289.9970,0,U,54131,999,17628,.19997771E-4,.21E-6,0
ONEWEB-0514,2022-138V,2026-06-13T21:53:48.446592,13.19724609,.00019779,87.9176,305.6184,96.8405,263.2953,0,U,54132,999,17639,-.1331626E-3,-.4E-6,0
ONEWEB-0515,2022-138W,2026-06-13T20:39:50.689440,13.20770160,.00026743,87.9198,275.0929,113.1340,247.0076,0,U,54133,999,17886,-.3210387E-4,0,0
ONEWEB-0516,2022-138X,2026-06-13T21:17:24.558720,13.19724922,.00017843,87.9164,305.6302,102.3833,257.7500,0,U,54134,999,17639,.95031072E-4,.51E-6,0
ONEWEB-0517,2022-138Y,2026-06-13T22:37:01.351200,13.19724200,.00019642,87.9174,305.6111,89.2598,270.8760,0,U,54135,999,17640,-.9353713E-4,-.24E-6,0
ONEWEB-0518,2022-138Z,2026-06-13T21:15:10.232640,13.19727251,.00017989,87.9163,305.6326,104.6876,255.4456,0,U,54136,999,17639,.12475569E-3,.63E-6,0
ONEWEB-0519,2022-138AA,2026-06-13T21:51:32.904000,13.19726345,.00019207,87.9177,305.6183,91.9240,268.2112,0,U,54137,999,17640,-.61037215E-4,-.11E-6,0
ONEWEB-0520,2022-138AB,2026-06-13T22:41:34.910016,13.19724633,.00015751,87.9174,305.6115,99.9610,260.1701,0,U,54138,999,17639,-.6737269E-4,-.14E-6,0
ONEWEB-0521,2022-138AC,2026-06-13T21:40:09.738336,13.19724626,.00019794,87.9176,305.6087,92.2005,267.9355,0,U,54139,999,17633,-.19940104E-3,-.67E-6,0
